GLOBALSTAR M035 [-]     
1 25851U 99037A   23310.35674015 -.00000051  00000+0  48787-3 0  9992
2 25851  51.9954 288.0940 0013745 105.6038  44.0821 11.04527403 31190
GLOBALSTAR M032 [-]     
1 25852U 99037B   23310.24013968 -.00000076  00000+0 -30816-3 0  9997
2 25852  51.9916 154.1895 0007065 254.2844 105.7176 11.19045360 68859
GLOBALSTAR M051 [-]     
1 25853U 99037C   23310.52917206 -.00000071  00000+0  31818-4 0  9995
2 25853  51.9831  20.9390 0001457 227.9291 132.1395 11.42192744 65127
GLOBALSTAR M030 [-]     
1 25854U 99037D   23310.47050617 -.00000135  00000+0 -12726-2 0  9991
2 25854  51.9871 224.6160 0005284  65.9843 294.1526 11.55087221 82014
GLOBALSTAR M048 [-]     
1 25872U 99041A   23310.42502597 -.00000037  00000+0  89768-3 0  9991
2 25872  51.9373 293.4561 0012963 246.6343 283.0844 11.33840937 58194
GLOBALSTAR M026 [-]     
1 25873U 99041B   23310.60256587 -.00000128  00000+0 -23382-2 0  9998
2 25873  52.0031  51.7081 0001287  28.3186  73.8269 11.06828656 83319
GLOBALSTAR M043 [-]     
1 25874U 99041C   23310.43809473 -.00000049  00000+0  55937-3 0  9991
2 25874  51.9437  17.6043 0013267  29.6299 343.4258 11.25675590 56577
GLOBALSTAR M028 [-]     
1 25875U 99041D   23310.02267820 -.00000014  00000+0  55553-3 0  9997
2 25875  51.9603 149.7878 0062642 231.5545 127.9683 12.50544131116462
